{
  "type": "FeatureCollection",
  "features": [
    {
      "type": "Feature",
      "properties": {
        "norad_id": 40010,
        "name": "KAZEOSAT 2",
        "group": "resource",
        "lat": 81.64215412157611,
        "lon": 137.37099639731534,
        "alt_km": 604.532186488841,
        "timestamp": "2025-12-24T03:53:29.299474+00:00",
        "meta_object_name": "KAZEOSAT 2",
        "meta_object_id": "2014-033A",
        "meta_epoch": "2025-12-23T21:02:08.508768",
        "meta_mean_motion": 14.85188673,
        "meta_eccentricity": 0.0008614,
        "meta_inclination": 97.5495,
        "meta_ra_of_asc_node": 201.616,
        "meta_arg_of_pericenter": 167.6943,
        "meta_mean_anomaly": 192.4485,
        "meta_ephemeris_type": 0,
        "meta_classification_type": "U",
        "meta_norad_cat_id": 40010,
        "meta_element_set_no": 999,
        "meta_rev_at_epoch": 62293,
        "meta_bstar": 0.00019711,
        "meta_mean_motion_dot": 1.64e-05,
        "meta_mean_motion_ddot": 0,
        "tle_line1": "1 40010U 14033A   25357.87648737  .00001640  00000+0  19711-3 0  9990",
        "tle_line2": "2 40010  97.5495 201.6160 0008614 167.6943 192.4485 14.85188673622933"
      },
      "geometry": {
        "type": "Point",
        "coordinates": [
          137.37099639731534,
          81.64215412157611
        ]
      }
    },
    {
      "type": "Feature",
      "properties": {
        "norad_id": 40011,
        "name": "HODOYOSHI-4",
        "group": "resource",
        "lat": -82.4540403623266,
        "lon": -83.43829563273096,
        "alt_km": 618.1215656668764,
        "timestamp": "2025-12-24T03:53:29.299484+00:00",
        "meta_object_name": "HODOYOSHI-4",
        "meta_object_id": "2014-033B",
        "meta_epoch": "2025-12-23T20:13:30.364320",
        "meta_mean_motion": 14.87521638,
        "meta_eccentricity": 0.0023998,
        "meta_inclination": 97.5409,
        "meta_ra_of_asc_node": 186.1793,
        "meta_arg_of_pericenter": 163.293,
        "meta_mean_anomaly": 196.9083,
        "meta_ephemeris_type": 0,
        "meta_classification_type": "U",
        "meta_norad_cat_id": 40011,
        "meta_element_set_no": 999,
        "meta_rev_at_epoch": 62273,
        "meta_bstar": 0.00023018,
        "meta_mean_motion_dot": 2.047e-05,
        "meta_mean_motion_ddot": 0,
        "tle_line1": "1 40011U 14033B   25357.84271255  .00002047  00000+0  23018-3 0  9992",
        "tle_line2": "2 40011  97.5409 186.1793 0023998 163.2930 196.9083 14.87521638622733"
      },
      "geometry": {
        "type": "Point",
        "coordinates": [
          -83.43829563273096,
          -82.4540403623266
        ]
      }
    },
    {
      "type": "Feature",
      "properties": {
        "norad_id": 40013,
        "name": "DEIMOS-2",
        "group": "resource",
        "lat": -66.21818463078242,
        "lon": -108.76312525121402,
        "alt_km": 596.7586214469984,
        "timestamp": "2025-12-24T03:53:29.299495+00:00",
        "meta_object_name": "DEIMOS-2",
        "meta_object_id": "2014-033D",
        "meta_epoch": "2025-12-23T21:45:32.684256",
        "meta_mean_motion": 14.9301863,
        "meta_eccentricity": 0.0001414,
        "meta_inclination": 97.6057,
        "meta_ra_of_asc_node": 233.3388,
        "meta_arg_of_pericenter": 106.0331,
        "meta_mean_anomaly": 254.1045,
        "meta_ephemeris_type": 0,
        "meta_classification_type": "U",
        "meta_norad_cat_id": 40013,
        "meta_element_set_no": 999,
        "meta_rev_at_epoch": 61156,
        "meta_bstar": 0.00014532,
        "meta_mean_motion_dot": 1.457e-05,
        "meta_mean_motion_ddot": 0,
        "tle_line1": "1 40013U 14033D   25357.90662829  .00001457  00000+0  14532-3 0  9997",
        "tle_line2": "2 40013  97.6057 233.3388 0001414 106.0331 254.1045 14.93018630611563"
      },
      "geometry": {
        "type": "Point",
        "coordinates": [
          -108.76312525121402,
          -66.21818463078242
        ]
      }
    },
    {
      "type": "Feature",
      "properties": {
        "norad_id": 40015,
        "name": "HODOYOSHI-3",
        "group": "resource",
        "lat": 80.87752368640537,
        "lon": 107.012146971753,
        "alt_km": 619.3524908146946,
        "timestamp": "2025-12-24T03:53:29.299505+00:00",
        "meta_object_name": "HODOYOSHI-3",
        "meta_object_id": "2014-033F",
        "meta_epoch": "2025-12-23T17:48:14.398848",
        "meta_mean_motion": 14.84842389,
        "meta_eccentricity": 0.0032431,
        "meta_inclination": 97.6206,
        "meta_ra_of_asc_node": 163.0989,
        "meta_arg_of_pericenter": 210.5523,
        "meta_mean_anomaly": 149.3804,
        "meta_ephemeris_type": 0,
        "meta_classification_type": "U",
        "meta_norad_cat_id": 40015,
        "meta_element_set_no": 999,
        "meta_rev_at_epoch": 62158,
        "meta_bstar": 0.00018415,
        "meta_mean_motion_dot": 1.526e-05,
        "meta_mean_motion_ddot": 0,
        "tle_line1": "1 40015U 14033F   25357.74183332  .00001526  00000+0  18415-3 0  9999",
        "tle_line2": "2 40015  97.6206 163.0989 0032431 210.5523 149.3804 14.84842389621581"
      },
      "geometry": {
        "type": "Point",
        "coordinates": [
          107.012146971753,
          80.87752368640537
        ]
      }
    },
    {
      "type": "Feature",
      "properties": {
        "norad_id": 40053,
        "name": "SPOT 7",
        "group": "resource",
        "lat": -76.7867393176313,
        "lon": -157.3072544156676,
        "alt_km": 699.1730415811917,
        "timestamp": "2025-12-24T03:53:29.299515+00:00",
        "meta_object_name": "SPOT 7",
        "meta_object_id": "2014-034A",
        "meta_epoch": "2025-12-23T20:07:52.281120",
        "meta_mean_motion": 14.60747075,
        "meta_eccentricity": 0.0001532,
        "meta_inclination": 98.089,
        "meta_ra_of_asc_node": 59.6579,
        "meta_arg_of_pericenter": 81.2635,
        "meta_mean_anomaly": 278.874,
        "meta_ephemeris_type": 0,
        "meta_classification_type": "U",
        "meta_norad_cat_id": 40053,
        "meta_element_set_no": 999,
        "meta_rev_at_epoch": 61153,
        "meta_bstar": 0.00013364,
        "meta_mean_motion_dot": 6.06e-06,
        "meta_mean_motion_ddot": 0,
        "tle_line1": "1 40053U 14034A   25357.83879955  .00000606  00000+0  13364-3 0  9991",
        "tle_line2": "2 40053  98.0890  59.6579 0001532  81.2635 278.8740 14.60747075611538"
      },
      "geometry": {
        "type": "Point",
        "coordinates": [
          -157.3072544156676,
          -76.7867393176313
        ]
      }
    },
    {
      "type": "Feature",
      "properties": {
        "norad_id": 40072,
        "name": "SKYSAT-B",
        "group": "resource",
        "lat": -27.169825855211634,
        "lon": 118.14211667162486,
        "alt_km": 611.9090636938236,
        "timestamp": "2025-12-24T03:53:29.299525+00:00",
        "meta_object_name": "SKYSAT-B",
        "meta_object_id": "2014-037D",
        "meta_epoch": "2025-12-23T09:12:08.447904",
        "meta_mean_motion": 14.8736338,
        "meta_eccentricity": 0.0006781,
        "meta_inclination": 98.3626,
        "meta_ra_of_asc_node": 301.6522,
        "meta_arg_of_pericenter": 120.3207,
        "meta_mean_anomaly": 239.8679,
        "meta_ephemeris_type": 0,
        "meta_classification_type": "U",
        "meta_norad_cat_id": 40072,
        "meta_element_set_no": 999,
        "meta_rev_at_epoch": 61982,
        "meta_bstar": 0.00018053,
        "meta_mean_motion_dot": 1.571e-05,
        "meta_mean_motion_ddot": 0,
        "tle_line1": "1 40072U 14037D   25357.38343111  .00001571  00000+0  18053-3 0  9997",
        "tle_line2": "2 40072  98.3626 301.6522 0006781 120.3207 239.8679 14.87363380619828"
      },
      "geometry": {
        "type": "Point",
        "coordinates": [
          118.14211667162486,
          -27.169825855211634
        ]
      }
    },
    {
      "type": "Feature",
      "properties": {
        "norad_id": 40115,
        "name": "WORLDVIEW-3 (WV-3)",
        "group": "resource",
        "lat": 3.1099266330068462,
        "lon": 69.87162128258944,
        "alt_km": 618.050021632047,
        "timestamp": "2025-12-24T03:53:29.299535+00:00",
        "meta_object_name": "WORLDVIEW-3 (WV-3)",
        "meta_object_id": "2014-048A",
        "meta_epoch": "2025-12-23T18:10:20.333856",
        "meta_mean_motion": 14.84671754,
        "meta_eccentricity": 0.0001976,
        "meta_inclination": 97.8766,
        "meta_ra_of_asc_node": 69.9025,
        "meta_arg_of_pericenter": 131.128,
        "meta_mean_anomaly": 229.0105,
        "meta_ephemeris_type": 0,
        "meta_classification_type": "U",
        "meta_norad_cat_id": 40115,
        "meta_element_set_no": 999,
        "meta_rev_at_epoch": 61587,
        "meta_bstar": 0.00012055,
        "meta_mean_motion_dot": 9.66e-06,
        "meta_mean_motion_ddot": 0,
        "tle_line1": "1 40115U 14048A   25357.75717979  .00000966  00000+0  12055-3 0  9998",
        "tle_line2": "2 40115  97.8766  69.9025 0001976 131.1280 229.0105 14.84671754615879"
      },
      "geometry": {
        "type": "Point",
        "coordinates": [
          69.87162128258944,
          3.1099266330068462
        ]
      }
    }
  ]
}